NORAD_CAT_ID,OBJECT_NAME,OBJECT_TYPE,EPOCH,MEAN_MOTION,ECCENTRICITY,INCLINATION,RA_OF_ASC_NODE,ARG_OF_PERICENTER,MEAN_ANOMALY,BSTAR,MEAN_MOTION_DOT,MEAN_MOTION_DDOT,TLE_LINE0,TLE_LINE1,TLE_LINE2,SEMIMAJOR_AXIS,PERIOD,APOGEE,PERIGEE,DECAYED
53153.0,STARLINK-4098,PAYLOAD,2022-12-06 01:25:04,15.0884376,0.0002133,53.2185,104.5706,49.9356,310.1823,7.484399999999999e-05,9.03e-06,0.0,0 STARLINK-4098,1 53153U 22083X   22340.05908003  .00000903  00000-0  74844-4 0  9991,2 53153  53.2185 104.5706 0002133  49.9356 310.1823 15.08843760 22397,6917.869000000002,95.437,541.2090000000002,538.258,0.0
53153.0,STARLINK-4098,PAYLOAD,2022-12-06 09:21:59,15.08847635,0.0001857,53.2184,103.0837,49.4449,310.6705,1.1591e-05,-1.04e-06,0.0,0 STARLINK-4098,1 53153U 22083X   22340.39027734 -.00000104  00000-0  11591-4 0  9995,2 53153  53.2184 103.0837 0001857  49.4449 310.6705 15.08847635 21810,6917.857,95.437,541.007,538.437,0.0
53153.0,STARLINK-4098,PAYLOAD,2022-12-06 15:43:33,15.08825284,0.0002009,53.2181,101.8948,45.8522,314.2636,-2.9257e-05,-7.54e-06,0.0,0 STARLINK-4098,1 53153U 22083X   22340.65525394 -.00000754  00000-0 -29257-4 0  9999,2 53153  53.2181 101.8948 0002009  45.8522 314.2636 15.08825284 22481,6917.925,95.438,541.18,538.401,0.0
53153.0,STARLINK-4098,PAYLOAD,2022-12-07 07:37:25,15.08833098,0.0001897,53.2185,98.9209,46.9017,313.2134,2.765e-06,-2.44e-06,0.0,0 STARLINK-4098,1 53153U 22083X   22341.31765127 -.00000244  00000-0  27650-5 0  9992,2 53153  53.2185  98.9209 0001897  46.9017 313.2134 15.08833098 22581,6917.901,95.438,541.0790000000002,538.4540000000002,0.0
53153.0,STARLINK-4098,PAYLOAD,2022-12-07 17:09:43,15.08836577,0.0001935,53.2188,97.1389,42.4632,317.6509,0.00011962,1.616e-05,0.0,0 STARLINK-4098,1 53153U 22083X   22341.71508775  .00001616  00000-0  11962-3 0  9990,2 53153  53.2188  97.1389 0001935  42.4632 317.6509 15.08836577 22018,6917.891,95.438,541.094,538.4169999999998,0.0
53153.0,STARLINK-4098,PAYLOAD,2022-12-08 13:49:43,15.08846805,0.0001703,53.2171,93.2714,52.8823,307.2324,0.00021192,3.087e-05,0.0,0 STARLINK-4098,1 53153U 22083X   22342.57620234  .00003087  00000-0  21192-3 0  9990,2 53153  53.2171  93.2714 0001703  52.8823 307.2324 15.08846805 22148,6917.86,95.437,540.903,538.5459999999998,0.0
53153.0,STARLINK-4098,PAYLOAD,2022-12-09 00:57:24,15.08862273,0.0001917,53.2177,91.1934,23.445,336.6629,0.00049073,7.535e-05,0.0,0 STARLINK-4098,1 53153U 22083X   22343.03987007  .00007535  00000-0  49073-3 0  9996,2 53153  53.2177  91.1934 0001917  23.4450 336.6629 15.08862273 22840,6917.812,95.436,541.003,538.351,0.0
53153.0,STARLINK-4098,PAYLOAD,2022-12-09 07:18:57,15.08845835,0.000219,53.218,90.0034,32.4913,327.6214,0.00011281,1.508e-05,0.0,0 STARLINK-4098,1 53153U 22083X   22343.30483772  .00001508  00000-0  11281-3 0  9990,2 53153  53.2180  90.0034 0002190  32.4913 327.6214 15.08845835 22251,6917.863,95.437,541.243,538.2130000000002,0.0
53153.0,STARLINK-4098,PAYLOAD,2022-12-09 18:26:40,15.08830968,0.0002149,53.2178,87.9206,35.738,324.3756,-0.00013045,-2.363e-05,0.0,0 STARLINK-4098,1 53153U 22083X   22343.76852615 -.00002363  00000-0 -13045-3 0  9998,2 53153  53.2178  87.9206 0002149  35.7380 324.3756 15.08830968 22955,6917.908,95.438,541.26,538.286,0.0
53153.0,STARLINK-4098,PAYLOAD,2022-12-10 10:20:31,15.08843971,0.0001796,53.2185,84.9472,36.24,323.8714,-3.8267e-05,-8.97e-06,0.0,0 STARLINK-4098,1 53153U 22083X   22344.43091955 -.00000897  00000-0 -38267-4 0  9999,2 53153  53.2185  84.9472 0001796  36.2400 323.8714 15.08843971 23059,6917.868,95.437,540.976,538.491,0.0
53153.0,STARLINK-4098,PAYLOAD,2022-12-10 13:31:17,15.08845252,0.0001779,53.2186,84.3524,40.5145,319.598,-6.4427e-06,-3.91e-06,0.0,0 STARLINK-4098,1 53153U 22083X   22344.56339900 -.00000391  00000-0 -64427-5 0  9995,2 53153  53.2186  84.3524 0001779  40.5145 319.5980 15.08845252 22440,6917.864000000001,95.437,540.96,538.499,0.0
53153.0,STARLINK-4098,PAYLOAD,2022-12-10 16:42:04,15.08835286,0.0001893,53.2183,83.7575,39.6747,320.4383,-0.00014286,-2.561e-05,0.0,0 STARLINK-4098,1 53153U 22083X   22344.69588422 -.00002561  00000-0 -14286-3 0  9991,2 53153  53.2183  83.7575 0001893  39.6747 320.4383 15.08835286 23096,6917.895,95.438,541.069,538.45,0.0
53153.0,STARLINK-4098,PAYLOAD,2022-12-11 13:22:05,15.08832273,0.0001994,53.2182,79.8927,36.8811,323.2318,0.00020755,3.016e-05,0.0,0 STARLINK-4098,1 53153U 22083X   22345.55700967  .00003016  00000-0  20755-3 0  9999,2 53153  53.2182  79.8927 0001994  36.8811 323.2318 15.08832273 22591,6917.904,95.438,541.148,538.39,0.0
53153.0,STARLINK-4098,PAYLOAD,2022-12-11 18:08:14,15.0884169,0.0001973,53.2176,78.9994,37.2095,322.9033,0.00032725,4.924e-05,0.0,0 STARLINK-4098,1 53153U 22083X   22345.75572734  .00004924  00000-0  32725-3 0  9999,2 53153  53.2176  78.9994 0001973  37.2095 322.9033 15.08841690 23251,6917.875,95.437,541.105,538.375,0.0
53153.0,STARLINK-4098,PAYLOAD,2022-12-12 11:37:29,15.08843679,0.0001955,53.2177,75.7285,41.0008,319.1131,0.00016765,2.381e-05,0.0,0 STARLINK-4098,1 53153U 22083X   22346.48436656  .00002381  00000-0  16765-3 0  9993,2 53153  53.2177  75.7285 0001955  41.0008 319.1131 15.08843679 22735,6917.869000000002,95.437,541.087,538.382,0.0
53153.0,STARLINK-4098,PAYLOAD,2022-12-12 14:48:15,15.08838555,0.00019,53.2175,75.1342,42.8085,317.3054,6.2127e-05,7.01e-06,0.0,0 STARLINK-4098,1 53153U 22083X   22346.61684818  .00000701  00000-0  62127-4 0  9991,2 53153  53.2175  75.1342 0001900  42.8085 317.3054 15.08838555 23388,6917.885,95.438,541.064,538.435,0.0
53153.0,STARLINK-4098,PAYLOAD,2022-12-13 09:52:53,15.08836522,0.0002006,53.2182,71.5666,42.4017,317.713,4.5673e-05,4.39e-06,0.0,0 STARLINK-4098,1 53153U 22083X   22347.41173092  .00000439  00000-0  45673-4 0  9992,2 53153  53.2182  71.5666 0002006  42.4017 317.7130 15.08836522 22878,6917.891,95.438,541.144,538.368,0.0
53153.0,STARLINK-4098,PAYLOAD,2022-12-13 14:39:02,15.08838979,0.0002183,53.2179,70.67399999999998,40.2831,319.8323,4.9074e-05,4.93e-06,0.0,0 STARLINK-4098,1 53153U 22083X   22347.61045064  .00000493  00000-0  49074-4 0  9990,2 53153  53.2179  70.6740 0002183  40.2831 319.8323 15.08838979 22902,6917.884,95.438,541.259,538.238,0.0
53153.0,STARLINK-4098,PAYLOAD,2022-12-14 06:32:54,15.08831609,0.0002077,53.2192,67.7008,35.8972,324.2159,9.4426e-06,-1.38e-06,0.0,0 STARLINK-4098,1 53153U 22083X   22348.27285660 -.00000138  00000-0  94426-5 0  9990,2 53153  53.2192  67.7008 0002077  35.8972 324.2159 15.08831609 23630,6917.906,95.438,541.2080000000002,538.3340000000002,0.0
53153.0,STARLINK-4098,PAYLOAD,2022-12-14 11:19:04,15.08833466,0.0002126,53.2174,66.8074,35.7482,324.3652,-3.9022e-05,-9.09e-06,0.0,0 STARLINK-4098,1 53153U 22083X   22348.47157662 -.00000909  00000-0 -39022-4 0  9999,2 53153  53.2174  66.8074 0002126  35.7482 324.3652 15.08833466 23039,6917.9,95.438,541.236,538.295,0.0
53153.0,STARLINK-4098,PAYLOAD,2022-12-14 17:40:36,15.08839982,0.0002075,53.2184,65.6177,37.67,322.4437,5.9079e-05,6.52e-06,0.0,0 STARLINK-4098,1 53153U 22083X   22348.73653597  .00000652  00000-0  59079-4 0  9993,2 53153  53.2184  65.6177 0002075  37.6700 322.4437 15.08839982 23071,6917.88,95.438,541.181,538.31,0.0
53153.0,STARLINK-4098,PAYLOAD,2022-12-15 11:09:51,15.08838477,0.0002161,53.2171,62.3473,36.7969,323.3171,0.00016392,2.321e-05,0.0,0 STARLINK-4098,1 53153U 22083X   22349.46517845  .00002321  00000-0  16392-3 0  9994,2 53153  53.2171  62.3473 0002161  36.7969 323.3171 15.08838477 23818,6917.885,95.438,541.245,538.255,0.0
53153.0,STARLINK-4098,PAYLOAD,2022-12-15 12:45:14,15.08844517,0.0002189,53.2174,62.0499,35.859,324.2549,0.0001871,2.691e-05,0.0,0 STARLINK-4098,1 53153U 22083X   22349.53141536  .00002691  00000-0  18710-3 0  9998,2 53153  53.2174  62.0499 0002189  35.8590 324.2549 15.08844517 23198,6917.8669999999975,95.437,541.246,538.217,0.0
53153.0,STARLINK-4098,PAYLOAD,2022-12-15 15:56:00,15.08847251,0.0002202,53.2175,61.4553,35.3933,324.7205,0.00023164,3.401e-05,0.0,0 STARLINK-4098,1 53153U 22083X   22349.66389428  .00003401  00000-0  23164-3 0  9995,2 53153  53.2175  61.4553 0002202  35.3933 324.7205 15.08847251 23210,6917.858,95.437,541.247,538.2,0.0
53153.0,STARLINK-4098,PAYLOAD,2022-12-16 11:00:38,15.08850059,0.0002247,53.2177,57.8874,30.6162,329.496,0.00032148,4.833e-05,0.0,0 STARLINK-4098,1 53153U 22083X   22350.45877417  .00004833  00000-0  32148-3 0  9996,2 53153  53.2177  57.8874 0002247  30.6162 329.4960 15.08850059 23331,6917.85,95.437,541.269,538.16,0.0
53153.0,STARLINK-4098,PAYLOAD,2022-12-16 14:11:24,15.088501999999998,0.0002222,53.2176,57.2925,32.1933,327.9195,0.00029407,4.396e-05,0.0,0 STARLINK-4098,1 53153U 22083X   22350.59125351  .00004396  00000-0  29407-3 0  9992,2 53153  53.2176  57.2925 0002222  32.1933 327.9195 15.08850200 23989,6917.849,95.437,541.251,538.177,0.0
53153.0,STARLINK-4098,PAYLOAD,2022-12-17 10:51:25,15.08843419,0.0002295,53.2175,53.4268,30.7499,329.3628,5.5145e-05,5.9e-06,0.0,0 STARLINK-4098,1 53153U 22083X   22351.45237289  .00000590  00000-0  55145-4 0  9993,2 53153  53.2175  53.4268 0002295  30.7499 329.3628 15.08843419 24114,6917.87,95.437,541.323,538.1469999999998,0.0
53153.0,STARLINK-4098,PAYLOAD,2022-12-17 12:26:48,15.08842448,0.0002283,53.2176,53.1292,31.6042,328.5087,-4.4087e-06,-3.59e-06,0.0,0 STARLINK-4098,1 53153U 22083X   22351.51861281 -.00000359  00000-0 -44087-5 0  9994,2 53153  53.2176  53.1292 0002283  31.6042 328.5087 15.08842448 23491,6917.873000000001,95.437,541.317,538.159,0.0
53153.0,STARLINK-4098,PAYLOAD,2022-12-17 15:37:34,15.08844016,0.0002272,53.2178,52.5346,32.7729,327.3403,3.3e-05,2.37e-06,0.0,0 STARLINK-4098,1 53153U 22083X   22351.65109272  .00000237  00000-0  33000-4 0  9999,2 53153  53.2178  52.5346 0002272  32.7729 327.3403 15.08844016 23513,6917.868,95.437,541.305,538.161,0.0
